NORAD_CAT_ID,OBJECT_NAME,OBJECT_TYPE,EPOCH,MEAN_MOTION,ECCENTRICITY,INCLINATION,RA_OF_ASC_NODE,ARG_OF_PERICENTER,MEAN_ANOMALY,BSTAR,MEAN_MOTION_DOT,MEAN_MOTION_DDOT,TLE_LINE0,TLE_LINE1,TLE_LINE2,SEMIMAJOR_AXIS,PERIOD,APOGEE,PERIGEE,DECAYED
55311.0,STARLINK-5312,PAYLOAD,2024-07-31 15:08:46,14.98328233,0.0003072,70.0001,42.226,265.0506,95.0303,-5.9272e-05,-8e-06,0.0,0 STARLINK-5312,1 55311U 23010AU  24213.63109070 -.00000800  00000-0 -59272-4 0  9998,2 55311  70.0001  42.2260 0003072 265.0506  95.0303 14.98328233 86857,6950.198,96.107,574.198,569.928,0.0
55311.0,STARLINK-5312,PAYLOAD,2024-07-31 21:33:18,14.98328816,0.0003051,70.0003,41.5532,262.7819,97.2994,-4.1244e-05,-5.85e-06,0.0,0 STARLINK-5312,1 55311U 23010AU  24213.89812996 -.00000585  00000-0 -41244-4 0  9994,2 55311  70.0003  41.5532 0003051 262.7819  97.2994 14.98328816 85701,6950.197,96.107,574.182,569.941,0.0
55311.0,STARLINK-5312,PAYLOAD,2024-07-31 23:09:26,14.98329276,0.0003053,70.0004,41.3849,262.4658,97.6154,-3.6565e-05,-5.29e-06,0.0,0 STARLINK-5312,1 55311U 23010AU  24213.96488954 -.00000529  00000-0 -36565-4 0  9993,2 55311  70.0004  41.3849 0003053 262.4658  97.6154 14.98329276 86907,6950.195,96.107,574.182,569.938,0.0
55311.0,STARLINK-5312,PAYLOAD,2024-08-01 11:58:30,14.98334634,0.0003086,70.0003,40.0373,267.4637,92.6169,6.7974e-05,7.18e-06,0.0,0 STARLINK-5312,1 55311U 23010AU  24214.49896210  .00000718  00000-0  67974-4 0  9996,2 55311  70.0003  40.0373 0003086 267.4637  92.6169 14.98334634 85793,6950.179,96.107,574.188,569.899,0.0
55311.0,STARLINK-5312,PAYLOAD,2024-08-01 21:35:18,14.9833796,0.0003063,70.0004,39.0277,265.3629,94.718,0.00010111,1.114e-05,0.0,0 STARLINK-5312,1 55311U 23010AU  24214.89951741  .00001114  00000-0  10111-3 0  9992,2 55311  70.0004  39.0277 0003063 265.3629  94.7180 14.98337960 87049,6950.168,96.106,574.162,569.904,0.0
55311.0,STARLINK-5312,PAYLOAD,2024-08-02 13:36:39,14.98323758,0.000304,70.0004,37.3445,266.1375,93.9436,-9.5368e-06,-2.07e-06,0.0,0 STARLINK-5312,1 55311U 23010AU  24215.56712915 -.00000207  00000-0 -95368-5 0  9998,2 55311  70.0004  37.3445 0003040 266.1375  93.9436 14.98323758 85952,6950.212,96.107,574.19,569.964,0.0
55311.0,STARLINK-5312,PAYLOAD,2024-08-02 15:12:48,14.98323436,0.0003046,70.0004,37.1762,266.247,93.8341,-1.3189e-05,-2.5e-06,0.0,0 STARLINK-5312,1 55311U 23010AU  24215.63388964 -.00000250  00000-0 -13189-4 0  9997,2 55311  70.0004  37.1762 0003046 266.2470  93.8341 14.98323436 87156,6950.213,96.107,574.195,569.961,0.0
55311.0,STARLINK-5312,PAYLOAD,2024-08-02 21:37:20,14.98324146,0.000308,70.0004,36.5029,268.8225,91.2581,-6.3668e-07,-1.01e-06,0.0,0 STARLINK-5312,1 55311U 23010AU  24215.90092991 -.00000101  00000-0 -63668-6 0  9993,2 55311  70.0004  36.5029 0003080 268.8225  91.2581 14.98324146 87190,6950.211,96.107,574.217,569.935,0.0
55311.0,STARLINK-5312,PAYLOAD,2024-08-03 13:38:40,14.98333778,0.0003307,70.0,34.8197,271.2606,88.8174,7.1932e-06,-7e-08,0.0,0 STARLINK-5312,1 55311U 23010AU  24216.56852348 -.00000007  00000-0  71932-5 0  9992,2 55311  70.0000  34.8197 0003307 271.2606  88.8174 14.98333778 86107,6950.181,96.107,574.345,569.748,0.0
55311.0,STARLINK-5312,PAYLOAD,2024-08-03 15:14:48,14.98344335,0.0003089,70.0001,34.651,271.9968,88.0837,-0.00016506,-2.063e-05,0.0,0 STARLINK-5312,1 55311U 23010AU  24216.63528112 -.00002063  00000-0 -16506-3 0  9998,2 55311  70.0001  34.6510 0003089 271.9968  88.0837 14.98344335 87302,6950.149,96.106,574.16,569.867,0.0
55311.0,STARLINK-5312,PAYLOAD,2024-08-03 21:39:20,14.98340746,0.0003259,70.0002,33.9779,271.3479,88.7307,-5.1289e-06,-1.54e-06,0.0,0 STARLINK-5312,1 55311U 23010AU  24216.90231804 -.00000154  00000-0 -51289-5 0  9995,2 55311  70.0002  33.9779 0003259 271.3479  88.7307 14.98340746 87347,6950.16,96.106,574.29,569.76,0.0
55311.0,STARLINK-5312,PAYLOAD,2024-08-04 13:40:41,14.98323627,0.0003233,70.0004,32.2946,271.4694,88.6095,2.458e-05,2e-06,0.0,0 STARLINK-5312,1 55311U 23010AU  24217.56992790  .00000200  00000-0  24580-4 0  9999,2 55311  70.0004  32.2946 0003233 271.4694  88.6095 14.98323627 86250,6950.213,96.107,574.325,569.831,0.0
55311.0,STARLINK-5312,PAYLOAD,2024-08-04 20:05:13,14.98331994,0.000319,70.0003,31.6214,271.5418,88.5376,0.00011298,1.255e-05,0.0,0 STARLINK-5312,1 55311U 23010AU  24217.83696080  .00001255  00000-0  11298-3 0  9994,2 55311  70.0003  31.6214 0003190 271.5418  88.5376 14.98331994 86298,6950.187,96.107,574.269,569.835,0.0
55311.0,STARLINK-5312,PAYLOAD,2024-08-04 21:41:21,14.98333415,0.0003188,70.0004,31.4531,271.5297,88.5496,0.00012625,1.414e-05,0.0,0 STARLINK-5312,1 55311U 23010AU  24217.90371948  .00001414  00000-0  12625-3 0  9997,2 55311  70.0004  31.4531 0003188 271.5297  88.5496 14.98333415 87497,6950.182,96.107,574.263,569.832,0.0
55311.0,STARLINK-5312,PAYLOAD,2024-08-05 21:43:22,14.98336932,0.0003085,70.0007,28.9282,271.8274,88.2532,1.8512e-05,1.28e-06,0.0,0 STARLINK-5312,1 55311U 23010AU  24218.90511875  .00000128  00000-0  18512-4 0  9996,2 55311  70.0007  28.9282 0003085 271.8274  88.2532 14.98336932 86458,6950.171,96.107,574.181,569.892,0.0
55311.0,STARLINK-5312,PAYLOAD,2024-08-06 04:07:55,14.9832949,0.0002981,70.0011,28.2561,269.8273,90.2545,-5.8605e-05,-7.92e-06,0.0,0 STARLINK-5312,1 55311U 23010AU  24219.17216495 -.00000792  00000-0 -58605-4 0  9992,2 55311  70.0011  28.2561 0002981 269.8273  90.2545 14.98329490 86498,6950.194,96.107,574.131,569.988,0.0
55311.0,STARLINK-5312,PAYLOAD,2024-08-06 13:44:43,14.9831784,0.0002952,70.0011,27.2458,271.1172,88.9648,0.00016989,1.934e-05,0.0,0 STARLINK-5312,1 55311U 23010AU  24219.57272706  .00001934  00000-0  16989-3 0  9998,2 55311  70.0011  27.2458 0002952 271.1172  88.9648 14.98317840 87747,6950.23,96.108,574.147,570.044,0.0
55311.0,STARLINK-5312,PAYLOAD,2024-08-06 21:45:22,14.98378246,0.0003198,70.0013,26.404,268.8035,91.2757,-0.00086355,-0.00010395,0.0,0 STARLINK-5312,1 55311U 23010AU  24219.90651211 -.00010395  00000-0 -86355-3 0  9994,2 55311  70.0013  26.4040 0003198 268.8035  91.2757 14.98378246 87791,6950.044,96.104,574.131,569.686,0.0
55311.0,STARLINK-5312,PAYLOAD,2024-08-07 12:10:36,14.98332652,0.0002977,70.0014,24.8891,269.1028,90.979,1.8948e-06,-7e-07,0.0,0 STARLINK-5312,1 55311U 23010AU  24220.50736184 -.00000070  00000-0  18948-5 0  9998,2 55311  70.0014  24.8891 0002977 269.1028  90.9790 14.98332652 86690,6950.185,96.107,574.119,569.981,0.0
55311.0,STARLINK-5312,PAYLOAD,2024-08-07 20:11:16,14.98335011,0.0002946,70.0015,24.0474,267.6336,92.4486,3.1697e-05,2.85e-06,0.0,0 STARLINK-5312,1 55311U 23010AU  24220.84115880  .00000285  00000-0  31697-4 0  9991,2 55311  70.0015  24.0474 0002946 267.6336  92.4486 14.98335011 87930,6950.177,96.107,574.09,569.995,0.0
55311.0,STARLINK-5312,PAYLOAD,2024-08-08 13:48:45,14.98329749,0.0002956,70.0016,22.196,265.3749,94.7072,4.8053e-05,4.8e-06,0.0,0 STARLINK-5312,1 55311U 23010AU  24221.57552114  .00000480  00000-0  48053-4 0  9998,2 55311  70.0016  22.1960 0002956 265.3749  94.7072 14.98329749 88044,6950.194,96.107,574.113,570.004,0.0
55311.0,STARLINK-5312,PAYLOAD,2024-08-08 20:13:17,14.98331413,0.0002894,70.0019,21.523,262.023,98.06,7.7069e-05,8.27e-06,0.0,0 STARLINK-5312,1 55311U 23010AU  24221.84255912  .00000827  00000-0  77069-4 0  9998,2 55311  70.0019  21.5230 0002894 262.0230  98.0600 14.98331413 86896,6950.189,96.107,574.065,570.042,0.0
55311.0,STARLINK-5312,PAYLOAD,2024-08-09 13:50:46,14.98330575,0.0003218,70.0014,19.6697,272.4817,87.5974,-6.3097e-07,-1.01e-06,0.0,0 STARLINK-5312,1 55311U 23010AU  24222.57692133 -.00000101  00000-0 -63097-6 0  9994,2 55311  70.0014  19.6697 0003218 272.4817  87.5974 14.98330575 88193,6950.191,96.107,574.293,569.82,0.0
55311.0,STARLINK-5312,PAYLOAD,2024-08-09 20:15:17,14.98336132,0.0003211,70.0017,18.9965,272.6871,87.3921,6.5513e-05,6.89e-06,0.0,0 STARLINK-5312,1 55311U 23010AU  24222.84395564  .00000689  00000-0  65513-4 0  9994,2 55311  70.0017  18.9965 0003211 272.6871  87.3921 14.98336132 87049,6950.174,96.107,574.271,569.807,0.0
55311.0,STARLINK-5312,PAYLOAD,2024-08-10 12:16:39,14.98324523,0.0002847,70.0026,17.3159,265.5452,94.5382,-4.6461e-05,-6.47e-06,0.0,0 STARLINK-5312,1 55311U 23010AU  24223.51156615 -.00000647  00000-0 -46461-4 0  9998,2 55311  70.0026  17.3159 0002847 265.5452  94.5382 14.98324523 87140,6950.21,96.107,574.054,570.096,0.0
55311.0,STARLINK-5312,PAYLOAD,2024-08-10 13:52:47,14.98324768,0.0002842,70.0027,17.1477,265.4713,94.6121,-4.2693e-05,-6.02e-06,0.0,0 STARLINK-5312,1 55311U 23010AU  24223.57832609 -.00000602  00000-0 -42693-4 0  9992,2 55311  70.0027  17.1477 0002842 265.4713  94.6121 14.98324768 88342,6950.209,96.107,574.049,570.099,0.0
55311.0,STARLINK-5312,PAYLOAD,2024-08-10 20:17:19,14.9833102,0.0002724,70.0027,16.4748,262.7825,97.3024,4.2065e-05,4.09e-06,0.0,0 STARLINK-5312,1 55311U 23010AU  24223.84536023  .00000409  00000-0  42065-4 0  9999,2 55311  70.0027  16.4748 0002724 262.7825  97.3024 14.98331020 87191,6950.19,96.107,573.948,570.162,0.0
55311.0,STARLINK-5312,PAYLOAD,2024-08-11 20:19:20,14.98325272,0.000241,70.0034,13.9505,264.4883,95.6001,0.00024001,2.772e-05,0.0,0 STARLINK-5312,1 55311U 23010AU  24224.84676044  .00002772  00000-0  24001-3 0  9992,2 55311  70.0034  13.9505 0002410 264.4883  95.6001 14.98325272 87342,6950.208,96.107,573.748,570.398,0.0
55311.0,STARLINK-5312,PAYLOAD,2024-08-12 09:08:24,14.9833192,0.0002747,70.0014,12.6015,269.4019,90.6825,6.1001e-05,6.35e-06,0.0,0 STARLINK-5312,1 55311U 23010AU  24225.38083988  .00000635  00000-0  61001-4 0  9999,2 55311  70.0014  12.6015 0002747 269.4019  90.6825 14.98331920 88618,6950.187,96.107,573.961,570.143,0.0
55311.0,STARLINK-5312,PAYLOAD,2024-08-12 20:21:19,14.98350039,0.0002749,70.0006,11.4236,265.3468,94.7377,0.00019765,2.267e-05,0.0,0 STARLINK-5312,1 55311U 23010AU  24225.84814175  .00002267  00000-0  19765-3 0  9992,2 55311  70.0006  11.4236 0002749 265.3468  94.7377 14.98350039 87490,6950.131,96.106,573.907,570.085,0.0
